TRANSPORTER-12 OBJECT BA
1 62657U 25009BA  26068.70118713  .00011330  00000+0  42733-3 0  9991
2 62657  97.3985 151.1390 0000403 234.6623 125.4579 15.27214003 63739
STARLINK-32802          
1 62738U 25014D   26068.24670750  .00035269  00000+0  12851-2 0  9994
2 62738  43.0003 156.5437 0001211 247.8832 112.1891 15.27580243 63197
